SL-8 R/B                
1 11574U 79089B   26111.81730365  .00000170  00000+0  59246-4 0  9992
2 11574  74.0712  11.2093 0015801 176.1685 183.9596 14.42377257442324
SL-14 R/B               
1 11672U 80005B   26111.81407529  .00000434  00000+0  41236-4 0  9997
2 11672  82.5120 266.3142 0016259  24.8999 335.3001 14.90977584482918
SL-8 R/B                
1 12139U 81003B   26111.82129014  .00013076  00000+0  32448-3 0  9996
2 12139  82.9368 250.0798 0256837  28.7893 332.7234 15.12723965321194
SL-3 R/B                
1 12465U 81046B   26111.79259461  .00010648  00000+0  23929-3 0  9997
2 12465  81.2312 237.9369 0018295 227.2837 132.6867 15.43021284445075
SL-3 R/B                
1 12904U 81103B   26111.84482728  .00002984  00000+0  12996-3 0  9995
2 12904  81.1585 162.7999 0014125 138.0407 222.1910 15.21824316979796
SL-3 R/B                
1 13068U 82013B   26111.83647025  .00003061  00000+0  13058-3 0  9997
2 13068  81.1714 110.1777 0022930  37.5303 322.7524 15.22365677410917
SL-3 R/B                
1 13154U 82039B   26111.85623630  .00001156  00000+0  68510-4 0  9996
2 13154  81.1498 166.1711 0028144 177.7071 182.4289 15.10289791388151
SL-3 R/B                
1 13403U 82079B   26111.83889087  .00003910  00000+0  15304-3 0  9997
2 13403  81.1445 142.1122 0024529  23.4048 336.8296 15.25283073384279
SL-14 R/B               
1 13553U 82092B   26111.73991816  .00000305  00000+0  31377-4 0  9995
2 13553  82.5648 101.1174 0020995 154.2730  18.7064 14.86702035335322
SL-3 R/B                
1 13819U 83010B   26111.64314044  .00011626  00000+0  22368-3 0  9990
2 13819  81.1011 309.5248 0015076 256.5334 103.4232 15.47636848364587
SL-3 R/B                
1 14208U 83075B   26111.79685418  .00009498  00000+0  24294-3 0  9990
2 14208  97.6133 118.0414 0023112  77.2411 283.1415 15.39385060336787
COSMOS 1536             
1 14699U 84013A   26111.85425344  .00005673  00000+0  22936-3 0  9996
2 14699  82.5449  64.9140 0015900 125.7380 234.5339 15.24400258279196
SL-14 R/B               
1 14820U 84027B   26111.65381123  .00000317  00000+0  33440-4 0  9994
2 14820  82.5445 204.7240 0017817 186.3302 173.7693 14.86019180254017
SL-8 R/B                
1 15483U 85006B   26111.66803156  .00000147  00000+0  57471-4 0  9995
2 15483  74.0460 182.0665 0017190  85.5754  29.0831 14.37809826160204
SL-12 R/B(2)            
1 15772U 85042D   26111.81711352  .00000038  00000+0  38449-4 0  9992
2 15772  71.1100 356.6140 0033291  56.6410  10.5428 14.21994099120527
SL-14 R/B               
1 15945U 85069B   26111.89469222  .00000292  00000+0  30090-4 0  9993
2 15945  82.5280 344.3166 0020025  52.2486 308.0541 14.86474363179255
SL-16 R/B               
1 16182U 85097B   26111.83998394 -.00000099  00000+0 -25705-4 0  9993
2 16182  71.0041  49.7054 0008290 206.9737 171.1613 14.16607147 93341
