[{"OBJECT_NAME":"SL-8 R/B","OBJECT_ID":"1979-089B","EPOCH":"2026-04-21T19:36:55.035360","MEAN_MOTION":14.42377257,"ECCENTRICITY":0.0015801,"INCLINATION":74.0712,"RA_OF_ASC_NODE":11.2093,"ARG_OF_PERICENTER":176.1685,"MEAN_ANOMALY":183.9596,"EPHEMERIS_TYPE":0,"CLASSIFICATION_TYPE":"U","NORAD_CAT_ID":11574,"ELEMENT_SET_NO":999,"REV_AT_EPOCH":44232,"BSTAR":5.9246e-5,"MEAN_MOTION_DOT":1.7e-6,"MEAN_MOTION_DDOT":0},{"OBJECT_NAME":"SL-14 R/B","OBJECT_ID":"1980-005B","EPOCH":"2026-04-21T19:32:16.105056","MEAN_MOTION":14.90977584,"ECCENTRICITY":0.0016259,"INCLINATION":82.512,"RA_OF_ASC_NODE":266.3142,"ARG_OF_PERICENTER":24.8999,"MEAN_ANOMALY":335.3001,"EPHEMERIS_TYPE":0,"CLASSIFICATION_TYPE":"U","NORAD_CAT_ID":11672,"ELEMENT_SET_NO":999,"REV_AT_EPOCH":48291,"BSTAR":4.1236e-5,"MEAN_MOTION_DOT":4.34e-6,"MEAN_MOTION_DDOT":0},{"OBJECT_NAME":"SL-8 R/B","OBJECT_ID":"1981-003B","EPOCH":"2026-04-21T19:42:39.468096","MEAN_MOTION":15.12723965,"ECCENTRICITY":0.0256837,"INCLINATION":82.9368,"RA_OF_ASC_NODE":250.0798,"ARG_OF_PERICENTER":28.7893,"MEAN_ANOMALY":332.7234,"EPHEMERIS_TYPE":0,"CLASSIFICATION_TYPE":"U","NORAD_CAT_ID":12139,"ELEMENT_SET_NO":999,"REV_AT_EPOCH":32119,"BSTAR":0.00032448,"MEAN_MOTION_DOT":0.00013076,"MEAN_MOTION_DDOT":0},{"OBJECT_NAME":"SL-3 R/B","OBJECT_ID":"1981-046B","EPOCH":"2026-04-21T19:01:20.174304","MEAN_MOTION":15.43021284,"ECCENTRICITY":0.0018295,"INCLINATION":81.2312,"RA_OF_ASC_NODE":237.9369,"ARG_OF_PERICENTER":227.2837,"MEAN_ANOMALY":132.6867,"EPHEMERIS_TYPE":0,"CLASSIFICATION_TYPE":"U","NORAD_CAT_ID":12465,"ELEMENT_SET_NO":999,"REV_AT_EPOCH":44507,"BSTAR":0.00023929,"MEAN_MOTION_DOT":0.00010648,"MEAN_MOTION_DDOT":0},{"OBJECT_NAME":"SL-3 R/B","OBJECT_ID":"1981-103B","EPOCH":"2026-04-21T20:16:33.076992","MEAN_MOTION":15.21824316,"ECCENTRICITY":0.0014125,"INCLINATION":81.1585,"RA_OF_ASC_NODE":162.7999,"ARG_OF_PERICENTER":138.0407,"MEAN_ANOMALY":222.191,"EPHEMERIS_TYPE":0,"CLASSIFICATION_TYPE":"U","NORAD_CAT_ID":12904,"ELEMENT_SET_NO":999,"REV_AT_EPOCH":97979,"BSTAR":0.00012996,"MEAN_MOTION_DOT":2.984e-5,"MEAN_MOTION_DDOT":0},{"OBJECT_NAME":"SL-3 R/B","OBJECT_ID":"1982-013B","EPOCH":"2026-04-21T20:04:31.029600","MEAN_MOTION":15.22365677,"ECCENTRICITY":0.002293,"INCLINATION":81.1714,"RA_OF_ASC_NODE":110.1777,"ARG_OF_PERICENTER":37.5303,"MEAN_ANOMALY":322.7524,"EPHEMERIS_TYPE":0,"CLASSIFICATION_TYPE":"U","NORAD_CAT_ID":13068,"ELEMENT_SET_NO":999,"REV_AT_EPOCH":41091,"BSTAR":0.00013058,"MEAN_MOTION_DOT":3.061e-5,"MEAN_MOTION_DDOT":0},{"OBJECT_NAME":"SL-3 R/B","OBJECT_ID":"1982-039B","EPOCH":"2026-04-21T20:32:58.816320","MEAN_MOTION":15.10289791,"ECCENTRICITY":0.0028144,"INCLINATION":81.1498,"RA_OF_ASC_NODE":166.1711,"ARG_OF_PERICENTER":177.7071,"MEAN_ANOMALY":182.4289,"EPHEMERIS_TYPE":0,"CLASSIFICATION_TYPE":"U","NORAD_CAT_ID":13154,"ELEMENT_SET_NO":999,"REV_AT_EPOCH":38815,"BSTAR":6.851e-5,"MEAN_MOTION_DOT":1.156e-5,"MEAN_MOTION_DDOT":0},{"OBJECT_NAME":"SL-3 R/B","OBJECT_ID":"1982-079B","EPOCH":"2026-04-21T20:08:00.171168","MEAN_MOTION":15.25283073,"ECCENTRICITY":0.0024529,"INCLINATION":81.1445,"RA_OF_ASC_NODE":142.1122,"ARG_OF_PERICENTER":23.4048,"MEAN_ANOMALY":336.8296,"EPHEMERIS_TYPE":0,"CLASSIFICATION_TYPE":"U","NORAD_CAT_ID":13403,"ELEMENT_SET_NO":999,"REV_AT_EPOCH":38427,"BSTAR":0.00015304,"MEAN_MOTION_DOT":3.91e-5,"MEAN_MOTION_DDOT":0},{"OBJECT_NAME":"SL-14 R/B","OBJECT_ID":"1982-092B","EPOCH":"2026-04-21T17:45:28.929024","MEAN_MOTION":14.86702035,"ECCENTRICITY":0.0020995,"INCLINATION":82.5648,"RA_OF_ASC_NODE":101.1174,"ARG_OF_PERICENTER":154.273,"MEAN_ANOMALY":18.7064,"EPHEMERIS_TYPE":0,"CLASSIFICATION_TYPE":"U","NORAD_CAT_ID":13553,"ELEMENT_SET_NO":999,"REV_AT_EPOCH":33532,"BSTAR":3.1377e-5,"MEAN_MOTION_DOT":3.05e-6,"MEAN_MOTION_DDOT":0},{"OBJECT_NAME":"SL-3 R/B","OBJECT_ID":"1983-010B","EPOCH":"2026-04-21T15:26:07.334016","MEAN_MOTION":15.47636848,"ECCENTRICITY":0.0015076,"INCLINATION":81.1011,"RA_OF_ASC_NODE":309.5248,"ARG_OF_PERICENTER":256.5334,"MEAN_ANOMALY":103.4232,"EPHEMERIS_TYPE":0,"CLASSIFICATION_TYPE":"U","NORAD_CAT_ID":13819,"ELEMENT_SET_NO":999,"REV_AT_EPOCH":36458,"BSTAR":0.00022368,"MEAN_MOTION_DOT":0.00011626,"MEAN_MOTION_DDOT":0},{"OBJECT_NAME":"SL-3 R/B","OBJECT_ID":"1983-075B","EPOCH":"2026-04-21T19:07:28.201152","MEAN_MOTION":15.3938506,"ECCENTRICITY":0.0023112,"INCLINATION":97.6133,"RA_OF_ASC_NODE":118.0414,"ARG_OF_PERICENTER":77.2411,"MEAN_ANOMALY":283.1415,"EPHEMERIS_TYPE":0,"CLASSIFICATION_TYPE":"U","NORAD_CAT_ID":14208,"ELEMENT_SET_NO":999,"REV_AT_EPOCH":33678,"BSTAR":0.00024294,"MEAN_MOTION_DOT":9.498e-5,"MEAN_MOTION_DDOT":0},{"OBJECT_NAME":"COSMOS 1536","OBJECT_ID":"1984-013A","EPOCH":"2026-04-21T20:30:07.497216","MEAN_MOTION":15.24400258,"ECCENTRICITY":0.00159,"INCLINATION":82.5449,"RA_OF_ASC_NODE":64.914,"ARG_OF_PERICENTER":125.738,"MEAN_ANOMALY":234.5339,"EPHEMERIS_TYPE":0,"CLASSIFICATION_TYPE":"U","NORAD_CAT_ID":14699,"ELEMENT_SET_NO":999,"REV_AT_EPOCH":27919,"BSTAR":0.00022936,"MEAN_MOTION_DOT":5.673e-5,"MEAN_MOTION_DDOT":0},{"OBJECT_NAME":"SL-14 R/B","OBJECT_ID":"1984-027B","EPOCH":"2026-04-21T15:41:29.290272","MEAN_MOTION":14.8601918,"ECCENTRICITY":0.0017817,"INCLINATION":82.5445,"RA_OF_ASC_NODE":204.724,"ARG_OF_PERICENTER":186.3302,"MEAN_ANOMALY":173.7693,"EPHEMERIS_TYPE":0,"CLASSIFICATION_TYPE":"U","NORAD_CAT_ID":14820,"ELEMENT_SET_NO":999,"REV_AT_EPOCH":25401,"BSTAR":3.344e-5,"MEAN_MOTION_DOT":3.17e-6,"MEAN_MOTION_DDOT":0},{"OBJECT_NAME":"SL-8 R/B","OBJECT_ID":"1985-006B","EPOCH":"2026-04-21T16:01:57.926784","MEAN_MOTION":14.37809826,"ECCENTRICITY":0.001719,"INCLINATION":74.046,"RA_OF_ASC_NODE":182.0665,"ARG_OF_PERICENTER":85.5754,"MEAN_ANOMALY":29.0831,"EPHEMERIS_TYPE":0,"CLASSIFICATION_TYPE":"U","NORAD_CAT_ID":15483,"ELEMENT_SET_NO":999,"REV_AT_EPOCH":16020,"BSTAR":5.7471e-5,"MEAN_MOTION_DOT":1.47e-6,"MEAN_MOTION_DDOT":0},{"OBJECT_NAME":"SL-12 R/B(2)","OBJECT_ID":"1985-042D","EPOCH":"2026-04-21T19:36:38.608128","MEAN_MOTION":14.21994099,"ECCENTRICITY":0.0033291,"INCLINATION":71.11,"RA_OF_ASC_NODE":356.614,"ARG_OF_PERICENTER":56.641,"MEAN_ANOMALY":10.5428,"EPHEMERIS_TYPE":0,"CLASSIFICATION_TYPE":"U","NORAD_CAT_ID":15772,"ELEMENT_SET_NO":999,"REV_AT_EPOCH":12052,"BSTAR":3.8449e-5,"MEAN_MOTION_DOT":3.8e-7,"MEAN_MOTION_DDOT":0},{"OBJECT_NAME":"SL-14 R/B","OBJECT_ID":"1985-069B","EPOCH":"2026-04-21T21:28:21.407808","MEAN_MOTION":14.86474363,"ECCENTRICITY":0.0020025,"INCLINATION":82.528,"RA_OF_ASC_NODE":344.3166,"ARG_OF_PERICENTER":52.2486,"MEAN_ANOMALY":308.0541,"EPHEMERIS_TYPE":0,"CLASSIFICATION_TYPE":"U","NORAD_CAT_ID":15945,"ELEMENT_SET_NO":999,"REV_AT_EPOCH":17925,"BSTAR":3.009e-5,"MEAN_MOTION_DOT":2.92e-6,"MEAN_MOTION_DDOT":0},{"OBJECT_NAME":"SL-16 R/B","OBJECT_ID":"1985-097B","EPOCH":"2026-04-21T20:09:34.612416","MEAN_MOTION":14.16607147,"ECCENTRICITY":0.000829,"INCLINATION":71.0041,"RA_OF_ASC_NODE":49.7054,"ARG_OF_PERICENTER":206.9737,"MEAN_ANOMALY":171.1613,"EPHEMERIS_TYPE":0,"CLASSIFICATION_TYPE":"U","NORAD_CAT_ID":16182,"ELEMENT_SET_NO":999,"REV_AT_EPOCH":9334,"BSTAR":-2.5705e-5,"MEAN_MOTION_DOT":-9.9e-7,"MEAN_MOTION_DDOT":0}]
